{
  "type": "FeatureCollection",
  "features": [
    {
      "type": "Feature",
      "properties": {
        "norad_id": 41589,
        "name": "EUTELSAT 117 WEST B (WAAS/PRN 131)",
        "group": "gnss",
        "lat": -0.01047482231552532,
        "lon": 105.93227214388982,
        "alt_km": 35787.69175736393,
        "timestamp": "2025-12-19T08:58:49.581539+00:00",
        "meta_object_name": "EUTELSAT 117 WEST B (WAAS/PRN 131)",
        "meta_object_id": "2016-038B",
        "meta_epoch": "2025-12-18T23:00:43.782048",
        "meta_mean_motion": 1.00271973,
        "meta_eccentricity": 3.963e-05,
        "meta_inclination": 0.0143,
        "meta_ra_of_asc_node": 155.6363,
        "meta_arg_of_pericenter": 131.3163,
        "meta_mean_anomaly": 29.0566,
        "meta_ephemeris_type": 0,
        "meta_classification_type": "U",
        "meta_norad_cat_id": 41589,
        "meta_element_set_no": 999,
        "meta_rev_at_epoch": 3485,
        "meta_bstar": 0,
        "meta_mean_motion_dot": 1.3e-07,
        "meta_mean_motion_ddot": 0,
        "tle_line1": "1 41589U 16038B   25352.95884007  .00000013  00000+0  00000+0 0  9995",
        "tle_line2": "2 41589   0.0143 155.6363 0000396 131.3163  29.0566  1.00271973 34850"
      },
      "geometry": {
        "type": "Point",
        "coordinates": [
          105.93227214388982,
          -0.01047482231552532
        ]
      }
    },
    {
      "type": "Feature",
      "properties": {
        "norad_id": 41859,
        "name": "GSAT0207 (GALILEO 15)",
        "group": "gnss",
        "lat": 52.9122113402597,
        "lon": 171.90373973767996,
        "alt_km": 23218.630157910822,
        "timestamp": "2025-12-19T08:58:49.581550+00:00",
        "meta_object_name": "GSAT0207 (GALILEO 15)",
        "meta_object_id": "2016-069A",
        "meta_epoch": "2025-12-13T09:14:27.730752",
        "meta_mean_motion": 1.70474447,
        "meta_eccentricity": 0.00022423,
        "meta_inclination": 55.3826,
        "meta_ra_of_asc_node": 106.2323,
        "meta_arg_of_pericenter": 321.9482,
        "meta_mean_anomaly": 38.0041,
        "meta_ephemeris_type": 0,
        "meta_classification_type": "U",
        "meta_norad_cat_id": 41859,
        "meta_element_set_no": 999,
        "meta_rev_at_epoch": 5623,
        "meta_bstar": 0,
        "meta_mean_motion_dot": 0,
        "meta_mean_motion_ddot": 0,
        "tle_line1": "1 41859U 16069A   25347.38504318  .00000000  00000+0  00000+0 0  9990",
        "tle_line2": "2 41859  55.3826 106.2323 0002242 321.9482  38.0041  1.70474447 56234"
      },
      "geometry": {
        "type": "Point",
        "coordinates": [
          171.90373973767996,
          52.9122113402597
        ]
      }
    },
    {
      "type": "Feature",
      "properties": {
        "norad_id": 41860,
        "name": "GSAT0212 (GALILEO 16)",
        "group": "gnss",
        "lat": 11.832042953602198,
        "lon": -82.25613090861927,
        "alt_km": 23225.75121208291,
        "timestamp": "2025-12-19T08:58:49.581564+00:00",
        "meta_object_name": "GSAT0212 (GALILEO 16)",
        "meta_object_id": "2016-069B",
        "meta_epoch": "2025-12-18T12:25:48.697536",
        "meta_mean_motion": 1.70474692,
        "meta_eccentricity": 0.00020646,
        "meta_inclination": 55.3831,
        "meta_ra_of_asc_node": 106.0857,
        "meta_arg_of_pericenter": 21.766,
        "meta_mean_anomaly": 338.2025,
        "meta_ephemeris_type": 0,
        "meta_classification_type": "U",
        "meta_norad_cat_id": 41860,
        "meta_element_set_no": 999,
        "meta_rev_at_epoch": 5657,
        "meta_bstar": 0,
        "meta_mean_motion_dot": -8e-08,
        "meta_mean_motion_ddot": 0,
        "tle_line1": "1 41860U 16069B   25352.51792474 -.00000008  00000+0  00000+0 0  9994",
        "tle_line2": "2 41860  55.3831 106.0857 0002064  21.7660 338.2025  1.70474692 56573"
      },
      "geometry": {
        "type": "Point",
        "coordinates": [
          -82.25613090861927,
          11.832042953602198
        ]
      }
    },
    {
      "type": "Feature",
      "properties": {
        "norad_id": 41861,
        "name": "GSAT0213 (GALILEO 17)",
        "group": "gnss",
        "lat": -45.51421349180585,
        "lon": 61.451208252834796,
        "alt_km": 23220.00278246947,
        "timestamp": "2025-12-19T08:58:49.581575+00:00",
        "meta_object_name": "GSAT0213 (GALILEO 17)",
        "meta_object_id": "2016-069C",
        "meta_epoch": "2025-12-17T17:05:43.699776",
        "meta_mean_motion": 1.70474994,
        "meta_eccentricity": 0.000259,
        "meta_inclination": 55.385,
        "meta_ra_of_asc_node": 106.1156,
        "meta_arg_of_pericenter": 282.1972,
        "meta_mean_anomaly": 77.7328,
        "meta_ephemeris_type": 0,
        "meta_classification_type": "U",
        "meta_norad_cat_id": 41861,
        "meta_element_set_no": 999,
        "meta_rev_at_epoch": 5642,
        "meta_bstar": 0,
        "meta_mean_motion_dot": -9e-08,
        "meta_mean_motion_ddot": 0,
        "tle_line1": "1 41861U 16069C   25351.71231134 -.00000009  00000+0  00000+0 0  9998",
        "tle_line2": "2 41861  55.3850 106.1156 0002590 282.1972  77.7328  1.70474994 56421"
      },
      "geometry": {
        "type": "Point",
        "coordinates": [
          61.451208252834796,
          -45.51421349180585
        ]
      }
    },
    {
      "type": "Feature",
      "properties": {
        "norad_id": 41862,
        "name": "GSAT0214 (GALILEO 18)",
        "group": "gnss",
        "lat": -24.565268774513456,
        "lon": -55.566025241570635,
        "alt_km": 23224.4616308373,
        "timestamp": "2025-12-19T08:58:49.581587+00:00",
        "meta_object_name": "GSAT0214 (GALILEO 18)",
        "meta_object_id": "2016-069D",
        "meta_epoch": "2025-12-17T20:35:58.649280",
        "meta_mean_motion": 1.70474854,
        "meta_eccentricity": 0.00015422,
        "meta_inclination": 55.383,
        "meta_ra_of_asc_node": 106.1044,
        "meta_arg_of_pericenter": 289.1766,
        "meta_mean_anomaly": 70.7658,
        "meta_ephemeris_type": 0,
        "meta_classification_type": "U",
        "meta_norad_cat_id": 41862,
        "meta_element_set_no": 999,
        "meta_rev_at_epoch": 5655,
        "meta_bstar": 0,
        "meta_mean_motion_dot": -9e-08,
        "meta_mean_motion_ddot": 0,
        "tle_line1": "1 41862U 16069D   25351.85831770 -.00000009  00000+0  00000+0 0  9996",
        "tle_line2": "2 41862  55.3830 106.1044 0001542 289.1766  70.7658  1.70474854 56558"
      },
      "geometry": {
        "type": "Point",
        "coordinates": [
          -55.566025241570635,
          -24.565268774513456
        ]
      }
    },
    {
      "type": "Feature",
      "properties": {
        "norad_id": 42709,
        "name": "SES-15 (WAAS/PRN 133)",
        "group": "gnss",
        "lat": 0.04327531645791722,
        "lon": 93.75309415361005,
        "alt_km": 35785.374467938535,
        "timestamp": "2025-12-19T08:58:49.581601+00:00",
        "meta_object_name": "SES-15 (WAAS/PRN 133)",
        "meta_object_id": "2017-026A",
        "meta_epoch": "2025-12-18T22:57:14.116032",
        "meta_mean_motion": 1.00274753,
        "meta_eccentricity": 5.745e-05,
        "meta_inclination": 0.0175,
        "meta_ra_of_asc_node": 346.8441,
        "meta_arg_of_pericenter": 200.6148,
        "meta_mean_anomaly": 115.4976,
        "meta_ephemeris_type": 0,
        "meta_classification_type": "U",
        "meta_norad_cat_id": 42709,
        "meta_element_set_no": 999,
        "meta_rev_at_epoch": 562,
        "meta_bstar": 0,
        "meta_mean_motion_dot": 8.4e-07,
        "meta_mean_motion_ddot": 0,
        "tle_line1": "1 42709U 17026A   25352.95641338  .00000084  00000+0  00000+0 0  9994",
        "tle_line2": "2 42709   0.0175 346.8441 0000574 200.6148 115.4976  1.00274753  5629"
      },
      "geometry": {
        "type": "Point",
        "coordinates": [
          93.75309415361005,
          0.04327531645791722
        ]
      }
    },
    {
      "type": "Feature",
      "properties": {
        "norad_id": 42738,
        "name": "QZS-2 (QZSS/PRN 194)",
        "group": "gnss",
        "lat": 35.35785050357799,
        "lon": 7.193666892694692,
        "alt_km": 38596.808829730486,
        "timestamp": "2025-12-19T08:58:49.581613+00:00",
        "meta_object_name": "QZS-2 (QZSS/PRN 194)",
        "meta_object_id": "2017-028A",
        "meta_epoch": "2025-12-18T13:55:30.556128",
        "meta_mean_motion": 1.00281517,
        "meta_eccentricity": 0.07566042,
        "meta_inclination": 39.7045,
        "meta_ra_of_asc_node": 245.7969,
        "meta_arg_of_pericenter": 269.5406,
        "meta_mean_anomaly": 282.9842,
        "meta_ephemeris_type": 0,
        "meta_classification_type": "U",
        "meta_norad_cat_id": 42738,
        "meta_element_set_no": 999,
        "meta_rev_at_epoch": 581,
        "meta_bstar": 0,
        "meta_mean_motion_dot": -1.25e-06,
        "meta_mean_motion_ddot": 0,
        "tle_line1": "1 42738U 17028A   25352.58021477 -.00000125  00000+0  00000+0 0  9990",
        "tle_line2": "2 42738  39.7045 245.7969 0756604 269.5406 282.9842  1.00281517  5810"
      },
      "geometry": {
        "type": "Point",
        "coordinates": [
          7.193666892694692,
          35.35785050357799
        ]
      }
    }
  ]
}